H1 CPF 01  gfz 2021 09 15 12  7582 tandemx   
H2 1003001  6202 36605    2021 09 15 12 59 42 2021 09 20 00 00 42   120 1 1  0 0 0
H9
10 0 59473  59742.000000  0    4457850.803   1028357.071   5140011.413
10 0 59473  59862.000000  0    3813677.218    662796.445   5687767.677
10 0 59473  59982.000000  0    3096503.706    297571.400   6135479.031
10 0 59473  60102.000000  0    2318946.579    -59770.750   6475308.807
10 0 59473  60222.000000  0    1494794.165   -402055.071   6701315.157
10 0 59473  60342.000000  0     638759.133   -722621.395   6809550.701
10 0 59473  60462.000000  0    -233786.707  -1015452.923   6798126.850
10 0 59473  60582.000000  0   -1107088.282  -1275288.518   6667243.841
10 0 59473  60702.000000  0   -1965290.823  -1497717.428   6419186.437
10 0 59473  60822.000000  0   -2792725.701  -1679253.608   6058285.728
10 0 59473  60942.000000  0   -3574195.995  -1817389.982   5590850.698
10 0 59473  61062.000000  0   -4295260.472  -1910633.139   5025065.074
10 0 59473  61182.000000  0   -4942506.291  -1958516.295   4370849.012
10 0 59473  61302.000000  0   -5503805.846  -1961589.454   3639688.677
10 0 59473  61422.000000  0   -5968551.571  -1921386.815   2844436.903
10 0 59473  61542.000000  0   -6327865.231  -1840373.440   1999088.653
10 0 59473  61662.000000  0   -6574778.161  -1721872.199   1118531.974
10 0 59473  61782.000000  0   -6704372.966  -1569971.064    218278.203
10 0 59473  61902.000000  0   -6713884.623  -1389413.463   -685819.327
10 0 59473  62022.000000  0   -6602758.044  -1185474.782  -1577853.954
10 0 59473  62142.000000  0   -6372660.550   -963828.567  -2442153.892
10 0 59473  62262.000000  0   -6027450.266   -730406.493  -3263563.831
10 0 59473  62382.000000  0   -5573101.052   -491254.731  -4027714.890
10 0 59473  62502.000000  0   -5017586.617   -252389.655  -4721276.191
10 0 59473  62622.000000  0   -4370727.679    -19657.822  -5332183.512
10 0 59473  62742.000000  0   -3644006.415    201396.467  -5849842.269
10 0 59473  62862.000000  0   -2850352.428    405653.672  -6265300.364
10 0 59473  62982.000000  0   -2003907.600    588528.971  -6571390.332
10 0 59473  63102.000000  0   -1119772.918    746067.446  -6762842.219
10 0 59473  63222.000000  0    -213741.156    875024.268  -6836364.078
10 0 59473  63342.000000  0     697978.591    972927.896  -6790691.020
10 0 59473  63462.000000  0    1599042.706   1038125.144  -6626606.829
10 0 59473  63582.000000  0    2473260.478   1069808.921  -6346933.125
10 0 59473  63702.000000  0    3304879.734   1068027.409  -5956485.755
10 0 59473  63822.000000  0    4078866.723   1033674.264  -5461999.283
10 0 59473  63942.000000  0    4781176.957    968460.012  -4872022.402
10 0 59473  64062.000000  0    5399014.297    874865.549  -4196781.888
10 0 59473  64182.000000  0    5921071.489    756077.981  -3448015.268
10 0 59473  64302.000000  0    6337746.901    615909.558  -2638775.199
10 0 59473  64422.000000  0    6641333.750    458701.870  -1783207.654
10 0 59473  64542.000000  0    6826176.181    289216.568   -896305.091
10 0 59473  64662.000000  0    6888785.110    112515.318      6359.541
10 0 59473  64782.000000  0    6827912.802    -66167.365    908911.359
10 0 59473  64902.000000  0    6644583.596   -241556.727   1795460.690
10 0 59473  65022.000000  0    6342078.498   -408471.325   2650392.205
10 0 59473  65142.000000  0    5925872.988   -561954.465   3458649.186
10 0 59473  65262.000000  0    5403530.530   -697399.654   4206004.555
10 0 59473  65382.000000  0    4784557.790   -810667.055   4879315.404
10 0 59473  65502.000000  0    4080220.821   -898189.124   5466755.912
10 0 59473  65622.000000  0    3303329.422   -957060.441   5958022.517
10 0 59473  65742.000000  0    2467995.865   -985112.277   6344510.331
10 0 59473  65862.000000  0    1589372.594   -980969.752   6619458.103
10 0 59473  65982.000000  0     683373.073   -944090.829   6778061.857
10 0 59473  66102.000000  0    -233619.392   -874785.557   6817553.055
10 0 59473  66222.000000  0   -1145047.742   -774216.146   6737242.592
10 0 59473  66342.000000  0   -2034478.753   -644377.618   6538531.615
10 0 59473  66462.000000  0   -2885897.763   -488058.905   6224888.565
10 0 59473  66582.000000  0   -3683997.024   -308785.325   5801793.696
10 0 59473  66702.000000  0   -4414454.242   -110743.397   5276649.812
10 0 59473  66822.000000  0   -5064195.668    101310.864   4658658.692
10 0 59473  66942.000000  0   -5621637.920    322158.143   3958664.624
10 0 59473  67062.000000  0   -6076903.364    546235.171   3188967.075
10 0 59473  67182.000000  0   -6422004.849    767764.443   2363106.341
10 0 59473  67302.000000  0   -6650995.686    980891.531   1495623.459
10 0 59473  67422.000000  0   -6760080.474   1179826.025    601799.468
10 0 59473  67542.000000  0   -6747683.303   1358983.256   -302621.762
10 0 59473  67662.000000  0   -6614469.980   1513122.790  -1201720.297
10 0 59473  67782.000000  0   -6363324.811   1637479.498  -2079688.685
10 0 59473  67902.000000  0   -5999284.513   1727885.531  -2921117.148
10 0 59473  68022.000000  0   -5529428.318   1780879.171  -3711270.802
10 0 59473  68142.000000  0   -4962727.928   1793796.729  -4436349.689
10 0 59473  68262.000000  0   -4309863.691   1764846.870  -5083727.038
10 0 59473  68382.000000  0   -3583011.855   1693165.679  -5642162.289
10 0 59473  68502.000000  0   -2795609.473   1578851.799  -6101986.431
10 0 59473  68622.000000  0   -1962101.234   1422980.824  -6455259.088
10 0 59473  68742.000000  0   -1097671.745   1227599.603  -6695893.934
10 0 59473  68862.000000  0    -217971.182    995699.943  -6819751.722
10 0 59473  68982.000000  0     661161.693    731173.396  -6824702.856
10 0 59473  69102.000000  0    1523976.926    438747.436  -6710662.064
10 0 59473  69222.000000  0    2355090.300    123902.693  -6479590.140
10 0 59473  69342.000000  0    3139751.488   -207226.454  -6135463.673
10 0 59473  69462.000000  0    3864102.751   -547967.063  -5684213.496
10 0 59473  69582.000000  0    4515421.675   -891236.998  -5133632.048
10 0 59473  69702.000000  0    5082348.144  -1229686.955  -4493251.601
10 0 59473  69822.000000  0    5555089.862  -1555852.830  -3774190.070
10 0 59473  69942.000000  0    5925601.165  -1862314.884  -2988967.197
10 0 59473  70062.000000  0    6187731.480  -2141861.064  -2151292.855
10 0 59473  70182.000000  0    6337338.938  -2387650.663  -1275830.167
10 0 59473  70302.000000  0    6372365.861  -2593373.758   -377938.038
10 0 59473  70422.000000  0    6292873.945  -2753402.950    526602.563
10 0 59473  70542.000000  0    6101037.341  -2862932.904   1421873.009
10 0 59473  70662.000000  0    5801092.918  -2918104.106   2292106.757
10 0 59473  70782.000000  0    5399247.471  -2916107.642   3121975.841
10 0 59473  70902.000000  0    4903546.060  -2855267.545   3896868.870
10 0 59473  71022.000000  0    4323704.577  -2735098.425   4603152.320
10 0 59473  71142.000000  0    3670913.461  -2556339.477   5228413.067
10 0 59473  71262.000000  0    2957612.646  -2320962.585   5761677.240
10 0 59473  71382.000000  0    2197246.672  -2032153.571   6193598.783
10 0 59473  71502.000000  0    1404005.835  -1694269.129   6516618.039
10 0 59473  71622.000000  0     592557.494  -1312769.943   6725088.270
10 0 59473  71742.000000  0    -222227.248   -894130.901   6815368.421
10 0 59473  71862.000000  0   -1025545.874   -445730.098   6785881.963
10 0 59473  71982.000000  0   -1802932.118     24281.008   6637142.415
10 0 59473  72102.000000  0   -2540515.396    507125.409   6371745.078
10 0 59473  72222.000000  0   -3225268.196    993563.589   5994325.088
10 0 59473  72342.000000  0   -3845237.968   1474069.184   5511482.020
10 0 59473  72462.000000  0   -4389760.404   1939014.733   4931671.137
10 0 59473  72582.000000  0   -4849649.856   2378864.602   4265061.036
10 0 59473  72702.000000  0   -5217361.383   2784371.289   3523358.779
10 0 59473  72822.000000  0   -5487121.569   3146769.930   2719606.334
10 0 59473  72942.000000  0   -5655025.846   3457967.566   1867951.437
10 0 59473  73062.000000  0   -5719100.076   3710723.378    983395.105
10 0 59473  73182.000000  0   -5679321.866   3898813.212     81519.880
10 0 59473  73302.000000  0   -5537602.537   4017174.619   -821792.448
10 0 59473  73422.000000  0   -5297730.610   4062029.525  -1710649.442
10 0 59473  73542.000000  0   -4965276.847   4030980.870  -2569437.583
10 0 59473  73662.000000  0   -4547462.590   3923079.527  -3383103.532
10 0 59473  73782.000000  0   -4052997.259   3738861.160  -4137421.288
10 0 59473  73902.000000  0   -3491889.789   3480353.093  -4819239.473
10 0 59473  74022.000000  0   -2875239.074   3151051.519  -5416705.127
10 0 59473  74142.000000  0   -2215010.624   2755870.833  -5919460.877
10 0 59473  74262.000000  0   -1523801.380   2301066.175  -6318815.371
10 0 59473  74382.000000  0    -814598.193   1794129.885  -6607881.522
10 0 59473  74502.000000  0    -100536.498   1243666.508  -6781683.683
10 0 59473  74622.000000  0     605337.872    659247.136  -6837233.749
10 0 59473  74742.000000  0    1290300.937     51246.344  -6773578.331
10 0 59473  74862.000000  0    1942175.605   -569338.457  -6591812.961
10 0 59473  74982.000000  0    2549542.463  -1191080.693  -6295064.421
10 0 59473  75102.000000  0    3101936.694  -1802329.624  -5888443.053
10 0 59473  75222.000000  0    3590027.142  -2391423.142  -5378964.349
10 0 59473  75342.000000  0    4005777.416  -2946908.466  -4775440.236
10 0 59473  75462.000000  0    4342582.448  -3457765.056  -4088336.251
10 0 59473  75582.000000  0    4595378.369  -3913623.735  -3329600.232
10 0 59473  75702.000000  0    4760725.894  -4304979.835  -2512463.303
10 0 59473  75822.000000  0    4836863.010  -4623394.940  -1651213.532
10 0 59473  75942.000000  0    4823725.283  -4861682.410   -760946.974
10 0 59473  76062.000000  0    4722931.289  -5014071.509    142700.672
10 0 59473  76182.000000  0    4537733.640  -5076344.403   1043835.050
99
